FENGYUN 3D              
1 43010U 17072A   26192.17922115  .00000252  00000+0  14090-3 0  9998
2 43010  99.0138 167.0363 0001760  23.0234 337.1020 14.19745062448397
NOAA 20 (JPSS-1)        
1 43013U 17073A   26192.17812674 -.00000001  00000+0  20568-4 0  9991
2 43013  98.7774 131.4281 0001234 128.3234 231.8053 14.19515946447875
GOES 17                 
1 43226U 18022A   26192.20721992 -.00000176  00000+0  00000+0 0  9995
2 43226   0.9957  85.3189 0000598  80.9156 107.9869  1.00270773 30666
SENTINEL-3B             
1 43437U 18039A   26192.17410468  .00000038  00000+0  33847-4 0  9992
2 43437  98.6238 259.3610 0001055 120.7417 239.3868 14.26741288427542
FENGYUN 2H              
1 43491U 18050A   26192.16641973 -.00000123  00000+0  00000+0 0  9997
2 43491   3.0891  78.7967 0002245 131.1227 218.2633  1.00267630 29672
METOP-C                 
1 43689U 18087A   26192.14048461  .00000034  00000+0  35521-4 0  9998
2 43689  98.6632 251.3048 0002229  98.8154 261.3276 14.21518323398231
GEO-KOMPSAT-2A          
1 43823U 18100A   26192.17892022 -.00000337  00000+0  00000+0 0  9993
2 43823   0.0252 122.2948 0001960 339.2445  20.2286  1.00271752 27874
METEOR-M2 2             
1 44387U 19038A   26192.19855895  .00000123  00000+0  73106-4 0  9993
2 44387  98.9158 179.8394 0000988  12.4473 347.6729 14.24372463364710
ARKTIKA-M 1             
1 47719U 21016A   26188.42887598 -.00000257  00000+0  00000+0 0  9997
2 47719  63.2524  54.6812 7295086 270.0380  14.5466  2.00614486 39194
FENGYUN 3E              
1 49008U 21062A   26192.16043654 -.00000147  00000+0 -48345-4 0  9992
2 49008  98.7502 195.3011 0002459  46.4366 313.7014 14.19905359259981
GOES 18                 
1 51850U 22021A   26192.22617122  .00000104  00000+0  00000+0 0  9992
2 51850   0.0048 121.9165 0000597  69.6185  42.0202  1.00272401  6838
NOAA 21 (JPSS-2)        
1 54234U 22150A   26192.14000411  .00000007  00000+0  23874-4 0  9993
2 54234  98.7061 130.5269 0002740 111.6407 248.5062 14.19540637189948
METEOSAT-12 (MTG-I1)    
1 54743U 22170C   26192.19072829 -.00000001  00000+0  00000+0 0  9993
2 54743   0.7208  18.9557 0003799  83.0160 255.5307  1.00266908 13219
TIANMU-1 03             
1 55973U 23039A   26192.16740119  .00009131  00000+0  17676-3 0  9998
2 55973  97.5238   7.0887 0002924  37.5006 322.6447 15.47966599184544
TIANMU-1 04             
1 55974U 23039B   26192.14744565  .00010343  00000+0  19569-3 0  9996
2 55974  97.5172   6.2238 0003417  27.8403 332.3030 15.48587729184556
TIANMU-1 05             
1 55975U 23039C   26192.21398894  .00010222  00000+0  19814-3 0  9994
2 55975  97.5218   6.7433 0003307  56.1639 303.9926 15.47891415184539
TIANMU-1 06             
1 55976U 23039D   26192.15236186  .00010259  00000+0  19480-3 0  9992
2 55976  97.5225   7.3393 0003417  48.9970 311.1575 15.48485333184551
FENGYUN 3G              
1 56232U 23055A   26192.16818369  .00013456  00000+0  21315-3 0  9998
2 56232  49.9912 222.3591 0007158  37.8307 322.3163 15.53666956183731
METEOR-M2 3             
1 57166U 23091A   26192.19842094 -.00000017  00000+0  11416-4 0  9992
2 57166  98.6070 246.6839 0005151  99.2560 260.9202 14.24048731157938
TIANMU-1 07             
1 57399U 23101A   26192.16884880  .00003724  00000+0  13044-3 0  9993
2 57399  97.2586 242.2883 0003991  72.8603 287.3075 15.30085266165313
TIANMU-1 08             
1 57400U 23101B   26192.20082378  .00003713  00000+0  13003-3 0  9996
2 57400  97.2574 242.0867 0004944  56.9504 303.2211 15.30089276165310
TIANMU-1 09             
1 57401U 23101C   26192.18369020  .00003891  00000+0  13599-3 0  9993
2 57401  97.2532 241.4735 0004588  73.7998 286.3748 15.30129322165313
TIANMU-1 10             
1 57402U 23101D   26192.15176727  .00003978  00000+0  13907-3 0  9990
2 57402  97.2611 242.5173 0005949  65.0939 295.0919 15.30102539165308
FENGYUN 3F              
1 57490U 23111A   26192.14377826  .00000006  00000+0  23106-4 0  9992
2 57490  98.6827 261.7050 0001352  78.0817 282.0511 14.19943005152261
ARKTIKA-M 2             
1 58584U 23198A   26191.19028483  .00000186  00000+0  00000+0 0  9990
2 58584  63.2187 151.7914 6909064 267.3543  18.7503  2.00608615 18787
TIANMU-1 11             
1 58645U 23205A   26192.23223694  .00003055  00000+0  11715-3 0  9991
2 58645  97.3445 213.4143 0006761 279.8426  80.2049 15.27238352141195
TIANMU-1 12             
1 58646U 23205B   26192.13867022  .00003393  00000+0  13049-3 0  9997
2 58646  97.3434 213.0707 0005550 253.0760 106.9871 15.27068510141169
TIANMU-1 13             
1 58647U 23205C   26192.23761977  .00003241  00000+0  12481-3 0  9992
2 58647  97.3462 213.4466 0005420 229.2118 130.8651 15.27061755141172
TIANMU-1 14             
1 58648U 23205D   26192.22212622  .00003305  00000+0  12703-3 0  9998
2 58648  97.3398 212.5944 0006081 237.1505 122.9149 15.27105706141173
TIANMU-1 19             
1 58660U 23208A   26192.19655304  .00005018  00000+0  16531-3 0  9995
2 58660  97.4517 308.6269 0004202 213.7008 146.3967 15.31936089141000
TIANMU-1 20             
1 58661U 23208B   26192.15045663  .00005059  00000+0  16054-3 0  9998
2 58661  97.4460 309.2409 0005976 228.3379 131.7352 15.33124572141096
