OBJECT_NAME,OBJECT_ID,EPOCH,MEAN_MOTION,ECCENTRICITY,INCLINATION,RA_OF_ASC_NODE,ARG_OF_PERICENTER,MEAN_ANOMALY,EPHEMERIS_TYPE,CLASSIFICATION_TYPE,NORAD_CAT_ID,ELEMENT_SET_NO,REV_AT_EPOCH,BSTAR,MEAN_MOTION_DOT,MEAN_MOTION_DDOT
FENGYUN 3D,2017-072A,2026-07-11T04:18:04.707360,14.19745062,.000176,99.0138,167.0363,23.0234,337.1020,0,U,43010,999,44839,.1409E-3,.252E-5,0
NOAA 20 (JPSS-1),2017-073A,2026-07-11T04:16:30.150336,14.19515946,.0001234,98.7774,131.4281,128.3234,231.8053,0,U,43013,999,44787,.20568E-4,-.1E-7,0
GOES 17,2018-022A,2026-07-11T04:58:23.801088,1.00270773,.0000598,0.9957,85.3189,80.9156,107.9869,0,U,43226,999,3066,0,-.176E-5,0
SENTINEL-3B,2018-039A,2026-07-11T04:10:42.644352,14.26741288,.0001055,98.6238,259.3610,120.7417,239.3868,0,U,43437,999,42754,.33847E-4,.38E-6,0
FENGYUN 2H,2018-050A,2026-07-11T03:59:38.664672,1.00267630,.0002245,3.0891,78.7967,131.1227,218.2633,0,U,43491,999,2967,0,-.123E-5,0
METOP-C,2018-087A,2026-07-11T03:22:17.870304,14.21518323,.0002229,98.6632,251.3048,98.8154,261.3276,0,U,43689,999,39823,.35521E-4,.34E-6,0
GEO-KOMPSAT-2A,2018-100A,2026-07-11T04:17:38.707008,1.00271752,.000196,0.0252,122.2948,339.2445,20.2286,0,U,43823,999,2787,0,-.337E-5,0
METEOR-M2 2,2019-038A,2026-07-11T04:45:55.493280,14.24372463,.0000988,98.9158,179.8394,12.4473,347.6729,0,U,44387,999,36471,.73106E-4,.123E-5,0
ARKTIKA-M 1,2021-016A,2026-07-07T10:17:34.884672,2.00614486,.72950864,63.2524,54.6812,270.0380,14.5466,0,U,47719,999,3919,0,-.257E-5,0
FENGYUN 3E,2021-062A,2026-07-11T03:51:01.717056,14.19905359,.0002459,98.7502,195.3011,46.4366,313.7014,0,U,49008,999,25998,-.48345E-4,-.147E-5,0
GOES 18,2022-021A,2026-07-11T05:25:41.193408,1.00272401,.0000597,0.0048,121.9165,69.6185,42.0202,0,U,51850,999,683,0,.104E-5,0
NOAA 21 (JPSS-2),2022-150A,2026-07-11T03:21:36.355104,14.19540637,.000274,98.7061,130.5269,111.6407,248.5062,0,U,54234,999,18994,.23874E-4,.7E-7,0
METEOSAT-12 (MTG-I1),2022-170C,2026-07-11T04:34:38.924256,1.00266908,.0003799,0.7208,18.9557,83.0160,255.5307,0,U,54743,999,1321,0,-.1E-7,0
TIANMU-1 03,2023-039A,2026-07-11T04:01:03.462816,15.47966599,.0002924,97.5238,7.0887,37.5006,322.6447,0,U,55973,999,18454,.17676E-3,.9131E-4,0
TIANMU-1 04,2023-039B,2026-07-11T03:32:19.304160,15.48587729,.0003417,97.5172,6.2238,27.8403,332.3030,0,U,55974,999,18455,.19569E-3,.10343E-3,0
TIANMU-1 05,2023-039C,2026-07-11T05:08:08.644416,15.47891415,.0003307,97.5218,6.7433,56.1639,303.9926,0,U,55975,999,18453,.19814E-3,.10222E-3,0
TIANMU-1 06,2023-039D,2026-07-11T03:39:24.064704,15.48485333,.0003417,97.5225,7.3393,48.9970,311.1575,0,U,55976,999,18455,.1948E-3,.10259E-3,0
FENGYUN 3G,2023-055A,2026-07-11T04:02:11.070816,15.53666956,.0007158,49.9912,222.3591,37.8307,322.3163,0,U,56232,999,18373,.21315E-3,.13456E-3,0
METEOR-M2 3,2023-091A,2026-07-11T04:45:43.569216,14.24048731,.0005151,98.6070,246.6839,99.2560,260.9202,0,U,57166,999,15793,.11416E-4,-.17E-6,0
TIANMU-1 07,2023-101A,2026-07-11T04:03:08.536320,15.30085266,.0003991,97.2586,242.2883,72.8603,287.3075,0,U,57399,999,16531,.13044E-3,.3724E-4,0
TIANMU-1 08,2023-101B,2026-07-11T04:49:11.174592,15.30089276,.0004944,97.2574,242.0867,56.9504,303.2211,0,U,57400,999,16531,.13003E-3,.3713E-4,0
TIANMU-1 09,2023-101C,2026-07-11T04:24:30.833280,15.30129322,.0004588,97.2532,241.4735,73.7998,286.3748,0,U,57401,999,16531,.13599E-3,.3891E-4,0
TIANMU-1 10,2023-101D,2026-07-11T03:38:32.692128,15.30102539,.0005949,97.2611,242.5173,65.0939,295.0919,0,U,57402,999,16530,.13907E-3,.3978E-4,0
FENGYUN 3F,2023-111A,2026-07-11T03:27:02.441664,14.19943005,.0001352,98.6827,261.7050,78.0817,282.0511,0,U,57490,999,15226,.23106E-4,.6E-7,0
ARKTIKA-M 2,2023-198A,2026-07-10T04:34:00.609312,2.00608615,.6909064,63.2187,151.7914,267.3543,18.7503,0,U,58584,999,1878,0,.186E-5,0
TIANMU-1 11,2023-205A,2026-07-11T05:34:25.271616,15.27238352,.0006761,97.3445,213.4143,279.8426,80.2049,0,U,58645,999,14119,.11715E-3,.3055E-4,0
TIANMU-1 12,2023-205B,2026-07-11T03:19:41.107008,15.27068510,.000555,97.3434,213.0707,253.0760,106.9871,0,U,58646,999,14116,.13049E-3,.3393E-4,0
TIANMU-1 13,2023-205C,2026-07-11T05:42:10.348128,15.27061755,.000542,97.3462,213.4466,229.2118,130.8651,0,U,58647,999,14117,.12481E-3,.3241E-4,0
TIANMU-1 14,2023-205D,2026-07-11T05:19:51.705408,15.27105706,.0006081,97.3398,212.5944,237.1505,122.9149,0,U,58648,999,14117,.12703E-3,.3305E-4,0
TIANMU-1 19,2023-208A,2026-07-11T04:43:02.182656,15.31936089,.0004202,97.4517,308.6269,213.7008,146.3967,0,U,58660,999,14100,.16531E-3,.5018E-4,0
TIANMU-1 20,2023-208B,2026-07-11T03:36:39.452832,15.33124572,.0005976,97.4460,309.2409,228.3379,131.7352,0,U,58661,999,14109,.16054E-3,.5059E-4,0
